{"type":"FeatureCollection","features":[{"type":"Feature","geometry":{"type":"Point","coordinates":[-120.27349,38.265486]},"properties":{"OBJECTID":10610,"feature_id":267629,"feature_name":"Oak Hollow","feature_class":"Valley","state_name":"California","state_numeric":"06","county_name":"Tuolumne","county_numeric":"109","map_name":"Dorrington","date_created":"1981-01-19T00:00:00Z","date_edited":"2022-09-10T02:43:09Z","bgn_type":2,"bgn_authority":4,"bgn_date":"2022-09-08T00:00:00Z","prim_lat_dms":"381556N","prim_long_dms":"1201625W","prim_lat_dec":38.2654857,"prim_long_dec":-120.2734901,"source_lat_dms":"381638N","source_lat_dec":38.277215,"source_long_dec":-120.293684,"rop_renaming_former_name":"Sq Hollow","rop_renaming_park_uinit":"Calaveras Big Trees SP","rop_renaming_park_district":"Central Valley","rop_renaming_county":"Calaveras","rop_renaming_new_name":"Oak Hollow","rop_id":"N0006","image-link":"https://raw.githubusercontent.com/pushkina00/ROP/refs/heads/main/assets/images/cHJpdmF0ZS9sci9pbWFnZXMvd2Vic2l0ZS8yMDI0LTAyL2xyL2dldHR5MTA3NGZlLWltYWdlLmpwZw.webp","label":"Oak Hollow"}},{"type":"Feature","geometry":{"type":"Polygon","coordinates":[[[-120.321463,38.266878],[-120.321453,38.264676],[-120.316838,38.264635],[-120.316944,38.260994],[-120.30839,38.261129],[-120.307998,38.261126],[-120.307944,38.264769],[-120.303497,38.264836],[-120.29905,38.264904],[-120.298966,38.268527],[-120.294815,38.268541],[-120.294383,38.268547],[-120.294453,38.264919],[-120.294556,38.250336],[-120.290049,38.250355],[-120.290134,38.246709],[-120.288825,38.246698],[-120.28561,38.246727],[-120.281085,38.246746],[-120.276632,38.243352],[-120.274929,38.242089],[-120.27217,38.24001],[-120.2677,38.236722],[-120.264274,38.236954],[-120.263186,38.237028],[-120.26328,38.234949],[-120.263317,38.234108],[-120.253533,38.234088],[-120.251531,38.234089],[-120.250637,38.234089],[-120.247151,38.236962],[-120.244852,38.236953],[-120.244797,38.237835],[-120.239077,38.237839],[-120.226222,38.247779],[-120.22396,38.24774],[-120.218308,38.251277],[-120.218271,38.253072],[-120.215962,38.254867],[-120.215918,38.25668],[-120.213591,38.258445],[-120.211683,38.258489],[-120.212012,38.26204],[-120.214801,38.262092],[-120.215266,38.262503],[-120.215878,38.262788],[-120.216527,38.262926],[-120.21658,38.262931],[-120.21661,38.262934],[-120.216819,38.262956],[-120.217147,38.26299],[-120.217803,38.262956],[-120.218462,38.2628],[-120.218827,38.262695],[-120.21925,38.262573],[-120.219804,38.262304],[-120.21992,38.262193],[-120.221501,38.262237],[-120.221449,38.265873],[-120.226069,38.265983],[-120.230643,38.266075],[-120.235218,38.266166],[-120.235196,38.258492],[-120.243813,38.258304],[-120.24409,38.262326],[-120.248925,38.262424],[-120.24951,38.262435],[-120.249546,38.262436],[-120.253761,38.26252],[-120.262697,38.262034],[-120.262593,38.265652],[-120.262329,38.272678],[-120.265515,38.272586],[-120.266903,38.27257],[-120.271477,38.272462],[-120.280605,38.272246],[-120.283081,38.27209],[-120.283436,38.272088],[-120.283736,38.272089],[-120.283747,38.272303],[-120.283747,38.272347],[-120.283793,38.27243],[-120.283833,38.272501],[-120.284031,38.272659],[-120.284179,38.272815],[-120.284365,38.273012],[-120.284422,38.273134],[-120.284605,38.273387],[-120.284606,38.273388],[-120.284833,38.273586],[-120.2849,38.273725],[-120.2849,38.273727],[-120.284898,38.274047],[-120.284807,38.274302],[-120.2848,38.274503],[-120.284882,38.274738],[-120.284883,38.27474],[-120.284933,38.275002],[-120.284934,38.275005],[-120.284911,38.275889],[-120.284913,38.276388],[-120.284913,38.27639],[-120.28486,38.276717],[-120.284758,38.276972],[-120.284719,38.277196],[-120.284721,38.27743],[-120.284693,38.278159],[-120.284694,38.278161],[-120.284704,38.278716],[-120.284704,38.278718],[-120.284695,38.279214],[-120.284777,38.279756],[-120.284789,38.280247],[-120.284732,38.280688],[-120.284635,38.281202],[-120.284635,38.281203],[-120.284506,38.281836],[-120.284441,38.282253],[-120.284421,38.282581],[-120.284526,38.2828],[-120.284527,38.282802],[-120.284854,38.283002],[-120.284958,38.283136],[-120.285098,38.283136],[-120.28507,38.284016],[-120.28506,38.284511],[-120.285107,38.286779],[-120.287859,38.286722],[-120.287868,38.286846],[-120.287985,38.288602],[-120.287985,38.288604],[-120.288333,38.288921],[-120.288656,38.289244],[-120.28875,38.289309],[-120.288974,38.289463],[-120.287544,38.291689],[-120.286476,38.292289],[-120.286925,38.293175],[-120.287308,38.293015],[-120.287613,38.292888],[-120.287727,38.29284],[-120.287829,38.292797],[-120.288285,38.292621],[-120.289013,38.292367],[-120.289523,38.292276],[-120.289795,38.292192],[-120.290455,38.29204],[-120.290718,38.291981],[-120.290948,38.291929],[-120.291203,38.291876],[-120.291311,38.291854],[-120.292251,38.291605],[-120.293158,38.291375],[-120.293915,38.291206],[-120.294622,38.291094],[-120.295105,38.291066],[-120.295692,38.29108],[-120.296362,38.291069],[-120.296732,38.291001],[-120.297063,38.290947],[-120.29725,38.290916],[-120.297371,38.290872],[-120.297664,38.290765],[-120.297797,38.290693],[-120.297881,38.290647],[-120.29825,38.290386],[-120.298364,38.290261],[-120.298445,38.290172],[-120.298617,38.28995],[-120.298743,38.289643],[-120.298802,38.289324],[-120.298835,38.289145],[-120.298885,38.288889],[-120.298885,38.288888],[-120.298942,38.288665],[-120.298943,38.288664],[-120.299042,38.288384],[-120.299043,38.288383],[-120.303408,38.286628],[-120.307995,38.286631],[-120.312582,38.286633],[-120.317024,38.282979],[-120.316879,38.279322],[-120.316871,38.275649],[-120.321455,38.272002],[-120.321445,38.268323],[-120.321463,38.266878]]]},"properties":{"FID":7462,"UNITNAME":"Calaveras Big Trees SP","GISID":"GIS0000024","SUBTYPE":"Park Unit or Property","UNITNBR":"306","GlobalID":"a3afed82-e3c1-4c62-b479-211371b95e20","rop_entries":[{"rop_id":"N0001","new_name":"Oak Hollow Campground","type":"gnis","former_name":"Sq Hollow Campground","feature_id":"1675900","park_uinit":"Calaveras Big Trees SP","park_district":"Central Valley","county":"Calaveras","meaning":"","tribal_partner":""},{"rop_id":"N0006","new_name":"Oak Hollow","type":"gnis","former_name":"Sq Hollow","feature_id":"267629","park_uinit":"Calaveras Big Trees SP","park_district":"Central Valley","county":"Calaveras","meaning":"","tribal_partner":""}],"rop_count":2,"label":"Calaveras Big Trees SP","image-link":"https://raw.githubusercontent.com/pushkina00/ROP/refs/heads/main/assets/images/giant-sequoia-exhibitionism-7e2157.jpg"},"id":7462},{"type":"Feature","geometry":{"type":"Point","coordinates":[-120.290096,38.273188]},"properties":{"OBJECTID":null,"feature_id":null,"feature_name":"Oak Hollow Campground","feature_class":null,"state_name":null,"state_numeric":null,"county_name":null,"county_numeric":null,"map_name":null,"date_created":null,"date_edited":null,"bgn_type":null,"bgn_authority":null,"bgn_date":null,"prim_lat_dms":null,"prim_long_dms":null,"prim_lat_dec":null,"prim_long_dec":null,"source_lat_dms":null,"source_lat_dec":null,"source_long_dec":null,"rop_renaming_former_name":null,"rop_renaming_park_uinit":null,"rop_renaming_park_district":null,"rop_renaming_county":null,"rop_renaming_new_name":null,"rop_id":"N0001","label":"Oak Hollow Campground","image-link":"https://raw.githubusercontent.com/pushkina00/ROP/refs/heads/main/assets/images/pioneers-cabin-near-view-diameter-32-ft-mammoth-grove-calaveras-county-456384%20(1).jpg"}},{"type":"Feature","geometry":{"type":"Point","coordinates":[-120.300376,38.276932]},"properties":{"feature_name":"Calaveras Big Trees Visitor Center","image-link":"https://raw.githubusercontent.com/pushkina00/ROP/refs/heads/main/assets/images/section-of-the-original-big-tree-30-feet-diameter-ae4cbc-640.jpg","label":"Visitor Center"}},{"type":"Feature","geometry":{"type":"Point","coordinates":[-120.308141,38.276132]},"properties":{"label":"North Grove Campground - Arnold, California 95223, United States","feature_name":"North Grove Campground","image-link":"https://raw.githubusercontent.com/pushkina00/ROP/refs/heads/main/assets/images/the-mother-of-the-forest-seen-through-the-torrey-group-mammoth-tree-grove-calaveras-17ab80.jpg"}},{"type":"Feature","geometry":{"type":"Point","coordinates":[-120.276655,38.261975]},"properties":{"label":"Lava Bluffs Trailhead - Big Trees Pkwy, Arnold, California 95223, United States","feature_name":"Lava Bluffs Trailhead","OBJECTID":0,"image-link":"https://raw.githubusercontent.com/pushkina00/ROP/refs/heads/main/assets/images/trees-in-calaveras-grove-and-views-of-yosemite-california-1e0e23-1024.jpg"}},{"type":"Feature","geometry":{"type":"Point","coordinates":[-120.263986,38.246342]},"properties":{"label":"Bubba's Bench - Twain Harte, California 95383, United States","feature_name":"Bubba's Bench","image-link":"https://raw.githubusercontent.com/pushkina00/ROP/refs/heads/main/assets/images/the-pioneers-cabin-2d4917.jpg"}},{"type":"Feature","geometry":{"type":"Point","coordinates":[-120.271486,38.270008]},"properties":{"label":"Stanislaus River Access - Arnold, California 95223, United States","feature_name":"Stanislaus River Access","image-link":"https://github.com/pushkina00/ROP/blob/main/assets/images/zan-y-22-covered-bridge-across-stanislaus-river-6922bf.jpg?raw=true"}}]}